*******************************************************************************
JPL/HORIZONS                211 Isolda (A879 XA)           2020-Jun-22 08:40:28
Rec #:     211 (+COV) Soln.date: 2020-May-20_01:01:07   # obs: 2604 (1880-2020)
 
IAU76/J2000 helio. ecliptic osc. elements (au, days, deg., period=Julian yrs):
 
  EPOCH=  2455412.5 ! 2010-Aug-04.00 (TDB)         Residual RMS= .33588
   EC= .1626445190448338   QR= 2.544374444790785   TP= 2456204.8891442227
   OM= 263.7332938185306   W=  174.3622671243428   IN= 3.883235298300893
   A= 3.038583376666303    MA= 212.5530292448645   ADIST= 3.532792308541821
   PER= 5.29682            N= .186078984           ANGMOM= .029586625
   DAN= 3.52948            DDN= 2.5461             L= 78.1084213
   B= .3811929             MOID= 1.55893004        TP= 2012-Oct-04.3891442227
 
Asteroid physical parameters (km, seconds, rotational period in hours):
   GM= n.a.                RAD= 70.5625            ROTPER= 18.365
   H= 8.                   G= .120                 B-V= .711
                           ALBEDO= .062            STYP= Ch
 
ASTEROID comments: 
1: soln ref.= JPL#100, OCC=0
2: source=ORB
*******************************************************************************
 
 
*******************************************************************************
Ephemeris / WWW_USER Mon Jun 22 08:40:28 2020 Pasadena, USA      / Horizons
*******************************************************************************
Target body name: 211 Isolda (A879 XA)            {source: JPL#100}
Center body name: Solar System Barycenter (0)     {source: DE431}
Center-site name: BODY CENTER
*******************************************************************************
Start time      : A.D. 1969-Jun-28 00:00:00.0000 TDB
Stop  time      : A.D. 2071-May-04 00:00:00.0000 TDB
Step-size       : 7200 minutes
*******************************************************************************
Center geodetic : 0.00000000,0.00000000,0.0000000 {E-lon(deg),Lat(deg),Alt(km)}
Center cylindric: 0.00000000,0.00000000,0.0000000 {E-lon(deg),Dxy(km),Dz(km)}
Center radii    : (undefined)                                                  
Small perturbers: Yes                             {source: SB431-N16}
Output units    : AU-D
Output type     : GEOMETRIC cartesian states
Output format   : 2 (position and velocity)
Reference frame : Ecliptic of J2000.0
*******************************************************************************
Initial IAU76/J2000 heliocentric ecliptic osculating elements (au, days, deg.):
  EPOCH=  2455412.5 ! 2010-Aug-04.00 (TDB)         Residual RMS= .33588        
   EC= .1626445190448338   QR= 2.544374444790785   TP= 2456204.8891442227      
   OM= 263.7332938185306   W=  174.3622671243428   IN= 3.883235298300893       
  Equivalent ICRF heliocentric equatorial cartesian coordinates (au, au/d):
   X= 7.272223405994084E-01  Y=-3.145792701938923E+00  Z=-1.282956533735007E+00
  VX= 8.168782040759675E-03 VY= 2.024940829047643E-03 VZ= 1.458978484779929E-03
Asteroid physical parameters (km, seconds, rotational period in hours):        
   GM= n.a.                RAD= 70.5625            ROTPER= 18.365              
   H= 8.                   G= .120                 B-V= .711                   
                           ALBEDO= .062            STYP= Ch                    
*******************************************************************************
            JDTDB,            Calendar Date (TDB),        delta-T,                      X,                      Y,                      Z,                     VX,                     VY,                     VZ,
******************************************************************************************************************************************************************************************************************
$$SOE
2463780.500000000, A.D. 2033-Jul-02 00:00:00.0000,      69.184103,  2.355138766914186E+00,  1.326564025699130E+00,  1.477553006259697E-01, -6.365854672781644E-03,  8.955710204616758E-03, -5.026904736235507E-04,
2463785.500000000, A.D. 2033-Jul-07 00:00:00.0000,      69.183963,  2.322872941809586E+00,  1.371092906695226E+00,  1.452145638123824E-01, -6.540263306580819E-03,  8.855181437615694E-03, -5.135844586275906E-04,
2463790.500000000, A.D. 2033-Jul-12 00:00:00.0000,      69.183821,  2.289738342530575E+00,  1.415109233222426E+00,  1.426196598856408E-01, -6.713346688462381E-03,  8.750688669689479E-03, -5.243561341141994E-04,
2463795.500000000, A.D. 2033-Jul-17 00:00:00.0000,      69.183681,  2.255741861185087E+00,  1.458593191861475E+00,  1.399712182115480E-01, -6.884998275437786E-03,  8.642235097623947E-03, -5.349983637476231E-04,
2463800.500000000, A.D. 2033-Jul-22 00:00:00.0000,      69.183544,  2.220890925554778E+00,  1.501524993702044E+00,  1.372699039661912E-01, -7.055110360439602E-03,  8.529827345157394E-03, -5.455039611934139E-04,
2463805.500000000, A.D. 2033-Jul-27 00:00:00.0000,      69.183412,  2.185193504617984E+00,  1.543884891728303E+00,  1.345164183638644E-01, -7.223574192482593E-03,  8.413475562581599E-03, -5.558656990318165E-04,
2463810.500000000, A.D. 2033-Aug-01 00:00:00.0000,      69.183284,  2.148658113454055E+00,  1.585653198691058E+00,  1.317114988391096E-01, -7.390280103967269E-03,  8.293193521640846E-03, -5.660763182064709E-04,
2463815.500000000, A.D. 2033-Aug-06 00:00:00.0000,      69.183160,  2.111293817492806E+00,  1.626810305440797E+00,  1.288559191800222E-01, -7.555117645424262E-03,  8.168998704839701E-03, -5.761285380819492E-04,
2463820.500000000, A.D. 2033-Aug-11 00:00:00.0000,      69.183040,  2.073110236070018E+00,  1.667336699692101E+00,  1.259504896097419E-01, -7.717975728470044E-03,  8.040912388710280E-03, -5.860150670874587E-04,
2463825.500000000, A.D. 2033-Aug-16 00:00:00.0000,      69.182928,  2.034117545247601E+00,  1.707212985190686E+00,  1.229960568137774E-01, -7.878742776768533E-03,  7.908959721778863E-03, -5.957286136851774E-04,
2463830.500000000, A.D. 2033-Aug-21 00:00:00.0000,      69.182824,  1.994326479862901E+00,  1.746419901258173E+00,  1.199935039121487E-01, -8.037306883081140E-03,  7.773169797566130E-03, -6.052618974770832E-04,
2463835.500000000, A.D. 2033-Aug-26 00:00:00.0000,      69.182730,  1.953748334779812E+00,  1.784938342686477E+00,  1.169437503753676E-01, -8.193555971536976E-03,  7.633575721146676E-03, -6.146076605933413E-04,
2463840.500000000, A.D. 2033-Aug-31 00:00:00.0000,      69.182645,  1.912394965314391E+00,  1.822749379946274E+00,  1.138477518825890E-01, -8.347377965620953E-03,  7.490214668128022E-03, -6.237586794267611E-04,
2463845.500000000, A.D. 2033-Sep-05 00:00:00.0000,      69.182568,  1.870278786806390E+00,  1.859834279670717E+00,  1.107065001203860E-01, -8.498660961729201E-03,  7.343127935733331E-03, -6.327077766379199E-04,
2463850.500000000, A.D. 2033-Sep-10 00:00:00.0000,      69.182500,  1.827412773310322E+00,  1.896174525374032E+00,  1.075210225209084E-01, -8.647293407703380E-03,  7.192360985573188E-03, -6.414478333951324E-04,
2463855.500000000, A.D. 2033-Sep-15 00:00:00.0000,      69.182444,  1.783810455382408E+00,  1.931751838361984E+00,  1.042923819382519E-01, -8.793164285889141E-03,  7.037963477530803E-03, -6.499718018508177E-04,
2463860.500000000, A.D. 2033-Sep-20 00:00:00.0000,      69.182400,  1.739485916941646E+00,  1.966548198788430E+00,  1.010216762618643E-01, -8.936163300356742E-03,  6.879989294228098E-03, -6.582727178472668E-04,
2463865.500000000, A.D. 2033-Sep-25 00:00:00.0000,      69.182368,  1.694453791185218E+00,  2.000545866809728E+00,  9.771003796590297E-02, -9.076181067886747E-03,  6.718496555636972E-03, -6.663437138244504E-04,
2463870.500000000, A.D. 2033-Sep-30 00:00:00.0000,      69.182349,  1.648729255540498E+00,  2.033727403786795E+00,  9.435863359363300E-02, -9.213109312242760E-03,  6.553547623472894E-03, -6.741780318882745E-04,
2463875.500000000, A.D. 2033-Oct-05 00:00:00.0000,      69.182340,  1.602328025638669E+00,  2.066075693482929E+00,  9.096866317618491E-02, -9.346841061167652E-03,  6.385209095058331E-03, -6.817690369894051E-04,
2463880.500000000, A.D. 2033-Oct-10 00:00:00.0000,      69.182341,  1.555266348297818E+00,  2.097573963204054E+00,  8.754135958525398E-02, -9.477270845477856E-03,  6.213551786383048E-03, -6.891102301589060E-04,
2463885.500000000, A.D. 2033-Oct-15 00:00:00.0000,      69.182356,  1.507560993506729E+00,  2.128205804826750E+00,  8.407798781959627E-02, -9.604294899579065E-03,  6.038650704130911E-03, -6.961952617450484E-04,
2463890.500000000, A.D. 2033-Oct-20 00:00:00.0000,      69.182384,  1.459229245404033E+00,  2.157955195658501E+00,  8.057984422545425E-02, -9.727811362678468E-03,  5.860585006509125E-03, -7.030179445935646E-04,
2463895.500000000, A.D. 2033-Oct-25 00:00:00.0000,      69.182426,  1.410288892251221E+00,  2.186806519073888E+00,  7.704825565134396E-02, -9.847720479884366E-03,  5.679437952804377E-03, -7.095722671155071E-04,
2463900.500000000, A.D. 2033-Oct-30 00:00:00.0000,      69.182478,  1.360758215402435E+00,  2.214744584870306E+00,  7.348457853786242E-02, -9.963924802214218E-03,  5.495296841596997E-03, -7.158524062093246E-04,
2463905.500000000, A.D. 2033-Nov-04 00:00:00.0000,      69.182541,  1.310655977279088E+00,  2.241754649285483E+00,  6.989019794321741E-02, -1.007632938452915E-02,  5.308252937121397E-03, -7.218527400555919E-04,
2463910.500000000, A.D. 2033-Nov-09 00:00:00.0000,      69.182613,  1.260001408360585E+00,  2.267822434615001E+00,  6.626652650511142E-02, -1.018484198123578E-02,  5.118401382786682E-03, -7.275678607608709E-04,
2463915.500000000, A.D. 2033-Nov-14 00:00:00.0000,      69.182697,  1.208814193201297E+00,  2.292934148365907E+00,  6.261500334023617E-02, -1.028937324000304E-02,  4.925841102401535E-03, -7.329925866224360E-04,
